{"type": "FeatureCollection", "features": [ {"type": "Feature", "properties": {"norad_id": 66634, "name": "STARLINK-35967", "group": "last-30-days", "lat": 22.58628664091613, "lon": -54.57835138120941, "alt_km": 444.47475520209264, "timestamp": "2025-12-21T22:41:40.163692+00:00", "meta": {"OBJECT_NAME": "STARLINK-35967", "OBJECT_ID": "2025-271T", "EPOCH": "2025-12-21T14:15:03.703104", "MEAN_MOTION": 15.39646148, "ECCENTRICITY": 9.018e-05, "INCLINATION": 53.1601, "RA_OF_ASC_NODE": 145.2516, "ARG_OF_PERICENTER": 75.1787, "MEAN_ANOMALY": 284.9318, "EPHEMERIS_TYPE": 0, "CLASSIFICATION_TYPE": "U", "NORAD_CAT_ID": 66634, "ELEMENT_SET_NO": 999, "REV_AT_EPOCH": 553, "BSTAR": 0.00093086163, "MEAN_MOTION_DOT": 0.00037047, "MEAN_MOTION_DDOT": 0}, "tle": {"line1": "1 66634U 25271T   25355.59379286  .00037047  00000+0  93086-3 0  9990", "line2": "2 66634  53.1601 145.2516 0000901  75.1787 284.9318 15.39646148  5537"}}, "geometry": {"type": "Point", "coordinates": [-54.57835138120941, 22.58628664091613]}}, {"type": "Feature", "properties": {"norad_id": 66635, "name": "STARLINK-35955", "group": "last-30-days", "lat": -18.09943111937454, "lon": -22.323964735176176, "alt_km": 450.1308380134251, "timestamp": "2025-12-21T22:41:40.163702+00:00", "meta": {"OBJECT_NAME": "STARLINK-35955", "OBJECT_ID": "2025-271U", "EPOCH": "2025-12-21T14:01:41.304576", "MEAN_MOTION": 15.39650521, "ECCENTRICITY": 0.0001145, "INCLINATION": 53.1608, "RA_OF_ASC_NODE": 145.1945, "ARG_OF_PERICENTER": 98.0111, "MEAN_ANOMALY": 262.1024, "EPHEMERIS_TYPE": 0, "CLASSIFICATION_TYPE": "U", "NORAD_CAT_ID": 66635, "ELEMENT_SET_NO": 999, "REV_AT_EPOCH": 557, "BSTAR": 0.0012773677, "MEAN_MOTION_DOT": 0.00051088, "MEAN_MOTION_DDOT": 0}, "tle": {"line1": "1 66635U 25271U   25355.58450584  .00051088  00000+0  12774-2 0  9996", "line2": "2 66635  53.1608 145.1945 0001145  98.0111 262.1024 15.39650521  5572"}}, "geometry": {"type": "Point", "coordinates": [-22.323964735176176, -18.09943111937454]}}, {"type": "Feature", "properties": {"norad_id": 66636, "name": "STARLINK-35968", "group": "last-30-days", "lat": 2.3091958467103004, "lon": -38.19248360776086, "alt_km": 447.81376769800136, "timestamp": "2025-12-21T22:41:40.163717+00:00", "meta": {"OBJECT_NAME": "STARLINK-35968", "OBJECT_ID": "2025-271V", "EPOCH": "2025-12-21T03:14:02.393088", "MEAN_MOTION": 15.39628525, "ECCENTRICITY": 9.786e-05, "INCLINATION": 53.1622, "RA_OF_ASC_NODE": 147.3616, "ARG_OF_PERICENTER": 71.64, "MEAN_ANOMALY": 288.4711, "EPHEMERIS_TYPE": 0, "CLASSIFICATION_TYPE": "U", "NORAD_CAT_ID": 66636, "ELEMENT_SET_NO": 999, "REV_AT_EPOCH": 550, "BSTAR": 0.00071528758, "MEAN_MOTION_DOT": 0.00028325, "MEAN_MOTION_DDOT": 0}, "tle": {"line1": "1 66636U 25271V   25355.13474992  .00028325  00000+0  71529-3 0  9999", "line2": "2 66636  53.1622 147.3616 0000978  71.6400 288.4711 15.39628525  5505"}}, "geometry": {"type": "Point", "coordinates": [-38.19248360776086, 2.3091958467103004]}}, {"type": "Feature", "properties": {"norad_id": 66637, "name": "STARLINK-35953", "group": "last-30-days", "lat": -36.80682818357466, "lon": -2.433776386284051, "alt_km": 451.96776133782714, "timestamp": "2025-12-21T22:41:40.163727+00:00", "meta": {"OBJECT_NAME": "STARLINK-35953", "OBJECT_ID": "2025-271W", "EPOCH": "2025-12-21T14:00:01.999872", "MEAN_MOTION": 15.39614843, "ECCENTRICITY": 9.93e-05, "INCLINATION": 53.1595, "RA_OF_ASC_NODE": 145.148, "ARG_OF_PERICENTER": 91.5908, "MEAN_ANOMALY": 287.8892, "EPHEMERIS_TYPE": 0, "CLASSIFICATION_TYPE": "U", "NORAD_CAT_ID": 66637, "ELEMENT_SET_NO": 999, "REV_AT_EPOCH": 566, "BSTAR": -7.2185465e-05, "MEAN_MOTION_DOT": -3.285e-05, "MEAN_MOTION_DDOT": 0}, "tle": {"line1": "1 66637U 25271W   25355.58335648 -.00003285  00000+0 -72185-4 0  9993", "line2": "2 66637  53.1595 145.1480 0000993  91.5908 287.8892 15.39614843  5669"}}, "geometry": {"type": "Point", "coordinates": [-2.433776386284051, -36.80682818357466]}}, {"type": "Feature", "properties": {"norad_id": 66638, "name": "STARLINK-35972", "group": "last-30-days", "lat": -52.037193442298516, "lon": 69.41780627178433, "alt_km": 452.765361715522, "timestamp": "2025-12-21T22:41:40.163738+00:00", "meta": {"OBJECT_NAME": "STARLINK-35972", "OBJECT_ID": "2025-271X", "EPOCH": "2025-12-21T14:00:01.999872", "MEAN_MOTION": 15.39641701, "ECCENTRICITY": 0.00011709, "INCLINATION": 53.16, "RA_OF_ASC_NODE": 145.0457, "ARG_OF_PERICENTER": 106.4346, "MEAN_ANOMALY": 324.4293, "EPHEMERIS_TYPE": 0, "CLASSIFICATION_TYPE": "U", "NORAD_CAT_ID": 66638, "ELEMENT_SET_NO": 999, "REV_AT_EPOCH": 566, "BSTAR": -7.5563631e-05, "MEAN_MOTION_DOT": -3.423e-05, "MEAN_MOTION_DDOT": 0}, "tle": {"line1": "1 66638U 25271X   25355.58335648 -.00003423  00000+0 -75564-4 0  9992", "line2": "2 66638  53.1600 145.0457 0001170 106.4346 324.4293 15.39641701  5666"}}, "geometry": {"type": "Point", "coordinates": [69.41780627178433, -52.037193442298516]}}, {"type": "Feature", "properties": {"norad_id": 66639, "name": "STARLINK-35908", "group": "last-30-days", "lat": -40.59555529634751, "lon": 103.31013184483108, "alt_km": 452.290076205476, "timestamp": "2025-12-21T22:41:40.163748+00:00", "meta": {"OBJECT_NAME": "STARLINK-35908", "OBJECT_ID": "2025-271Y", "EPOCH": "2025-12-21T14:00:01.999872", "MEAN_MOTION": 15.39617561, "ECCENTRICITY": 0.00013809, "INCLINATION": 53.1606, "RA_OF_ASC_NODE": 144.9937, "ARG_OF_PERICENTER": 77.2846, "MEAN_ANOMALY": 19.4405, "EPHEMERIS_TYPE": 0, "CLASSIFICATION_TYPE": "U", "NORAD_CAT_ID": 66639, "ELEMENT_SET_NO": 999, "REV_AT_EPOCH": 566, "BSTAR": -4.2558184e-05, "MEAN_MOTION_DOT": -2.101e-05, "MEAN_MOTION_DDOT": 0}, "tle": {"line1": "1 66639U 25271Y   25355.58335648 -.00002101  00000+0 -42558-4 0  9992", "line2": "2 66639  53.1606 144.9937 0001380  77.2846  19.4405 15.39617561  5660"}}, "geometry": {"type": "Point", "coordinates": [103.31013184483108, -40.59555529634751]}}, {"type": "Feature", "properties": {"norad_id": 66640, "name": "STARLINK-35921", "group": "last-30-days", "lat": -50.340519233498604, "lon": 28.12618985020769, "alt_km": 452.45959514819515, "timestamp": "2025-12-21T22:41:40.163758+00:00", "meta": {"OBJECT_NAME": "STARLINK-35921", "OBJECT_ID": "2025-271Z", "EPOCH": "2025-12-21T14:00:01.999872", "MEAN_MOTION": 15.39615789, "ECCENTRICITY": 7.615e-05, "INCLINATION": 53.1593, "RA_OF_ASC_NODE": 145.0962, "ARG_OF_PERICENTER": 102.5908, "MEAN_ANOMALY": 302.6413, "EPHEMERIS_TYPE": 0, "CLASSIFICATION_TYPE": "U", "NORAD_CAT_ID": 66640, "ELEMENT_SET_NO": 999, "REV_AT_EPOCH": 566, "BSTAR": -0.00010722787, "MEAN_MOTION_DOT": -4.685e-05, "MEAN_MOTION_DDOT": 0}, "tle": {"line1": "1 66640U 25271Z   25355.58335648 -.00004685  00000+0 -10723-3 0  9991", "line2": "2 66640  53.1593 145.0962 0000761 102.5908 302.6413 15.39615789  5666"}}, "geometry": {"type": "Point", "coordinates": [28.12618985020769, -50.340519233498604]}}, {"type": "Feature", "properties": {"norad_id": 66641, "name": "STARLINK-35923", "group": "last-30-days", "lat": 3.3392294576600614, "lon": 145.67533784085222, "alt_km": 429.90527927425865, "timestamp": "2025-12-21T22:41:40.163770+00:00", "meta": {"OBJECT_NAME": "STARLINK-35923", "OBJECT_ID": "2025-271AA", "EPOCH": "2025-12-21T14:00:01.999872", "MEAN_MOTION": 15.45538094, "ECCENTRICITY": 0.00012301, "INCLINATION": 53.1608, "RA_OF_ASC_NODE": 144.891, "ARG_OF_PERICENTER": 70.532, "MEAN_ANOMALY": 77.0856, "EPHEMERIS_TYPE": 0, "CLASSIFICATION_TYPE": "U", "NORAD_CAT_ID": 66641, "ELEMENT_SET_NO": 999, "REV_AT_EPOCH": 566, "BSTAR": 0.00027698851, "MEAN_MOTION_DOT": 0.00013109, "MEAN_MOTION_DDOT": 0}, "tle": {"line1": "1 66641U 25271AA  25355.58335648  .00013109  00000+0  27699-3 0  9991", "line2": "2 66641  53.1608 144.8910 0001230  70.5320  77.0856 15.45538094  5662"}}, "geometry": {"type": "Point", "coordinates": [145.67533784085222, 3.3392294576600614]}}, {"type": "Feature", "properties": {"norad_id": 66642, "name": "STARLINK-35926", "group": "last-30-days", "lat": 10.803529456733017, "lon": 151.37341453423772, "alt_km": 427.18385272564865, "timestamp": "2025-12-21T22:41:40.163780+00:00", "meta": {"OBJECT_NAME": "STARLINK-35926", "OBJECT_ID": "2025-271AB", "EPOCH": "2025-12-19T17:55:19.162848", "MEAN_MOTION": 15.47687763, "ECCENTRICITY": 0.0001998, "INCLINATION": 53.1589, "RA_OF_ASC_NODE": 153.6296, "ARG_OF_PERICENTER": 136.7356, "MEAN_ANOMALY": 223.381, "EPHEMERIS_TYPE": 0, "CLASSIFICATION_TYPE": "U", "NORAD_CAT_ID": 66642, "ELEMENT_SET_NO": 999, "REV_AT_EPOCH": 525, "BSTAR": -0.0052165, "MEAN_MOTION_DOT": -0.0026545, "MEAN_MOTION_DDOT": 0}, "tle": {"line1": "1 66642U 25271AB  25353.74674957 -.00265450  00000+0 -52165-2 0  9992", "line2": "2 66642  53.1589 153.6296 0001998 136.7356 223.3810 15.47687763  5252"}}, "geometry": {"type": "Point", "coordinates": [151.37341453423772, 10.803529456733017]}}, {"type": "Feature", "properties": {"norad_id": 66643, "name": "STARLINK-35918", "group": "last-30-days", "lat": -22.587979748318244, "lon": 125.06227062290934, "alt_km": 450.78572920570423, "timestamp": "2025-12-21T22:41:40.163792+00:00", "meta": {"OBJECT_NAME": "STARLINK-35918", "OBJECT_ID": "2025-271AC", "EPOCH": "2025-12-21T14:00:01.999872", "MEAN_MOTION": 15.39613091, "ECCENTRICITY": 0.0001213, "INCLINATION": 53.1606, "RA_OF_ASC_NODE": 144.9425, "ARG_OF_PERICENTER": 76.621, "MEAN_ANOMALY": 45.868, "EPHEMERIS_TYPE": 0, "CLASSIFICATION_TYPE": "U", "NORAD_CAT_ID": 66643, "ELEMENT_SET_NO": 999, "REV_AT_EPOCH": 566, "BSTAR": 1.2962145e-05, "MEAN_MOTION_DOT": 1.19e-06, "MEAN_MOTION_DDOT": 0}, "tle": {"line1": "1 66643U 25271AC  25355.58335648  .00000119  00000+0  12962-4 0  9998", "line2": "2 66643  53.1606 144.9425 0001213  76.6210  45.8680 15.39613091  5662"}}, "geometry": {"type": "Point", "coordinates": [125.06227062290934, -22.587979748318244]}}]}